[{"OBJECT_NAME":"STARLINK-30495","OBJECT_ID":"2023-151E","EPOCH":"2026-03-09T03:34:02.021664","MEAN_MOTION":15.26761318,"ECCENTRICITY":0.00013376,"INCLINATION":43.0042,"RA_OF_ASC_NODE":339.0612,"ARG_OF_PERICENTER":263.7152,"MEAN_ANOMALY":96.3547,"EPHEMERIS_TYPE":0,"CLASSIFICATION_TYPE":"U","NORAD_CAT_ID":57968,"ELEMENT_SET_NO":999,"REV_AT_EPOCH":13568,"BSTAR":5.7760532e-5,"MEAN_MOTION_DOT":1.291e-5,"MEAN_MOTION_DDOT":0},{"OBJECT_NAME":"FLOCK 4G-6","OBJECT_ID":"2025-009BD","EPOCH":"2026-03-09T17:03:16.973568","MEAN_MOTION":15.27432125,"ECCENTRICITY":0.00023795,"INCLINATION":97.398,"RA_OF_ASC_NODE":150.7943,"ARG_OF_PERICENTER":348.2637,"MEAN_ANOMALY":11.8546,"EPHEMERIS_TYPE":0,"CLASSIFICATION_TYPE":"U","NORAD_CAT_ID":62660,"ELEMENT_SET_NO":999,"REV_AT_EPOCH":12130,"BSTAR":0.00045909501,"MEAN_MOTION_DOT":0.00012261,"MEAN_MOTION_DDOT":0}]
